[{"OBJECT_NAME":"STARLINK-32785","OBJECT_ID":"2025-004W","EPOCH":"2026-03-09T11:27:02.367936","MEAN_MOTION":15.27588924,"ECCENTRICITY":0.00013865,"INCLINATION":42.9988,"RA_OF_ASC_NODE":221.2873,"ARG_OF_PERICENTER":240.6618,"MEAN_ANOMALY":119.4095,"EPHEMERIS_TYPE":0,"CLASSIFICATION_TYPE":"U","NORAD_CAT_ID":62531,"ELEMENT_SET_NO":999,"REV_AT_EPOCH":6642,"BSTAR":0.00091582448,"MEAN_MOTION_DOT":0.00025032,"MEAN_MOTION_DDOT":0},{"OBJECT_NAME":"FREGAT DEB","OBJECT_ID":"2011-037LS","EPOCH":"2026-03-09T08:54:22.917312","MEAN_MOTION":11.92158719,"ECCENTRICITY":0.15355515,"INCLINATION":51.4914,"RA_OF_ASC_NODE":189.2565,"ARG_OF_PERICENTER":293.3488,"MEAN_ANOMALY":51.3308,"EPHEMERIS_TYPE":0,"CLASSIFICATION_TYPE":"U","NORAD_CAT_ID":46411,"ELEMENT_SET_NO":999,"REV_AT_EPOCH":23768,"BSTAR":0.0033127922,"MEAN_MOTION_DOT":0.00011599,"MEAN_MOTION_DDOT":0}]
